H1 CPF 01  gfz 2021 01 29 13  5292 terrasarx 
H2 0702601  6201 31698    2021 01 29 12 59 42 2021 02 03 00 00 42   120 1 1  0 0 0
H9
10 0 59247  65502.000000  0    6401133.290   -613390.917   2463412.361
10 0 59247  65622.000000  0    6004113.959   -755456.817   3283339.644
10 0 59247  65742.000000  0    5499819.544   -876427.702   4045454.051
10 0 59247  65862.000000  0    4897492.052   -972395.227   4736352.180
10 0 59247  65982.000000  0    4208153.916  -1040068.518   5343898.049
10 0 59247  66102.000000  0    3444395.861  -1076859.401   5857434.501
10 0 59247  66222.000000  0    2620138.179  -1080951.581   6267966.193
10 0 59247  66342.000000  0    1750370.474  -1051352.056   6568311.332
10 0 59247  66462.000000  0     850874.790   -987923.936   6753222.401
10 0 59247  66582.000000  0     -62064.120   -891399.160   6819472.075
10 0 59247  66702.000000  0    -971953.790   -763371.664   6765904.615
10 0 59247  66822.000000  0   -1862390.519   -606271.268   6593454.160
10 0 59247  66942.000000  0   -2717353.458   -423317.939   6305129.340
10 0 59247  67062.000000  0   -3521492.234   -218457.592   5905965.240
10 0 59247  67182.000000  0   -4260405.087      3719.682   5402941.802
10 0 59247  67302.000000  0   -4920902.220    238077.660   4804867.972
10 0 59247  67422.000000  0   -5491248.631    479046.119   4122232.765
10 0 59247  67542.000000  0   -5961381.453    720745.745   3367024.793
10 0 59247  67662.000000  0   -6323096.789    957122.865   2552523.978
10 0 59247  67782.000000  0   -6570202.852   1182091.111   1693067.077
10 0 59247  67902.000000  0   -6698634.595   1389676.127    803791.506
10 0 59247  68022.000000  0   -6706526.757   1574160.396    -99638.589
10 0 59247  68142.000000  0   -6594241.303   1730223.984  -1001317.509
10 0 59247  68262.000000  0   -6364349.614   1853076.992  -1885386.680
10 0 59247  68382.000000  0   -6021571.532   1938581.644  -2736321.220
10 0 59247  68502.000000  0   -5572670.997   1983360.636  -3539209.741
10 0 59247  68622.000000  0   -5026311.126   1984887.735  -4280018.848
10 0 59247  68742.000000  0   -4392874.799   1941559.516  -4945836.732
10 0 59247  68862.000000  0   -3684255.846   1852747.012  -5525092.399
10 0 59247  68982.000000  0   -2913627.187   1718826.768  -6007747.415
10 0 59247  69102.000000  0   -2095190.880   1541190.673  -6385459.841
10 0 59247  69222.000000  0   -1243912.976   1322234.776  -6651717.226
10 0 59247  69342.000000  0    -375251.161   1065327.211  -6801936.750
10 0 59247  69462.000000  0     495120.505    774756.621  -6833534.748
10 0 59247  69582.000000  0    1351586.540    455662.169  -6745967.708
10 0 59247  69702.000000  0    2178865.084    113944.406  -6540741.757
10 0 59247  69822.000000  0    2962274.382   -243840.785  -6221388.899
10 0 59247  69942.000000  0    3687989.939   -610603.701  -5793412.831
10 0 59247  70062.000000  0    4343286.187   -978856.473  -5264202.585
10 0 59247  70182.000000  0    4916761.993  -1340861.010  -4642917.486
10 0 59247  70302.000000  0    5398545.749  -1688787.485  -3940339.800
10 0 59247  70422.000000  0    5780474.380  -2014879.132  -3168697.227
10 0 59247  70542.000000  0    6056242.778  -2311620.731  -2341456.952
10 0 59247  70662.000000  0    6221519.135  -2571906.981  -1473093.707
10 0 59247  70782.000000  0    6274022.748  -2789206.188   -578836.346
10 0 59247  70902.000000  0    6213562.440  -2957715.551    325602.828
10 0 59247  71022.000000  0    6042033.441  -3072503.730   1224310.488
10 0 59247  71142.000000  0    5763372.717  -3129636.918   2101461.583
10 0 59247  71262.000000  0    5383470.635  -3126284.605   2941607.329
10 0 59247  71382.000000  0    4910044.622  -3060802.499   3729955.138
10 0 59247  71502.000000  0    4352476.843  -2932789.373   4452634.142
10 0 59247  71622.000000  0    3721622.819  -2743119.343   5096942.043
10 0 59247  71742.000000  0    3029591.504  -2493947.509   5651569.652
10 0 59247  71862.000000  0    2289505.036  -2188687.752   6106795.843
10 0 59247  71982.000000  0    1515244.369  -1831965.490   6454652.911
10 0 59247  72102.000000  0     721184.962  -1429546.086   6689060.165
10 0 59247  72222.000000  0     -78072.434   -988239.859   6805924.070
10 0 59247  72342.000000  0    -867970.237   -515785.507   6803204.611
10 0 59247  72462.000000  0   -1634257.890    -20714.456   6680948.162
10 0 59247  72582.000000  0   -2363247.774    487802.781   6441286.843
10 0 59247  72702.000000  0   -3042059.214   1000125.642   6088404.093
10 0 59247  72822.000000  0   -3658847.247   1506325.122   5628466.715
10 0 59247  72942.000000  0   -4203013.098   1996375.409   5069523.811
10 0 59247  73062.000000  0   -4665392.734   2460352.775   4421372.364
10 0 59247  73182.000000  0   -5038418.214   2888637.556   3695389.372
10 0 59247  73302.000000  0   -5316248.220   3272114.314   2904334.734
10 0 59247  73422.000000  0   -5494866.070   3602366.466   2062127.822
10 0 59247  73542.000000  0   -5572142.624   3871861.654   1183600.129
10 0 59247  73662.000000  0   -5547860.803   4074121.128    284227.239
10 0 59247  73782.000000  0   -5423700.530   4203869.116   -620151.341
10 0 59247  73902.000000  0   -5203186.417   4257159.126  -1513619.830
10 0 59247  74022.000000  0   -4891597.672   4231473.773  -2380476.249
10 0 59247  74142.000000  0   -4495841.531   4125793.563  -3205516.384
10 0 59247  74262.000000  0   -4024296.006   3940634.861  -3974304.607
10 0 59247  74382.000000  0   -3486626.243   3678056.541  -4673426.174
10 0 59247  74502.000000  0   -2893579.902   3341636.208  -5290716.699
10 0 59247  74622.000000  0   -2256768.582   2936417.427  -5815465.495
10 0 59247  74742.000000  0   -1588437.693   2468829.664  -6238592.804
10 0 59247  74862.000000  0    -901229.425   1946581.131  -6552795.617
10 0 59247  74982.000000  0    -207945.655   1378529.397  -6752661.770
10 0 59247  75102.000000  0     478686.102    774531.064  -6834753.230
10 0 59247  75222.000000  0    1146240.242    145273.743  -6797659.800
10 0 59247  75342.000000  0    1782813.852   -497909.564  -6642020.957
10 0 59247  75462.000000  0    2377233.501  -1143239.575  -6370514.676
10 0 59247  75582.000000  0    2919247.811  -1778700.912  -5987816.730
10 0 59247  75702.000000  0    3399702.692  -2392260.147  -5500528.697
10 0 59247  75822.000000  0    3810698.526  -2972091.364  -4917076.591
10 0 59247  75942.000000  0    4145724.324  -3506804.641  -4247574.750
10 0 59247  76062.000000  0    4399764.920  -3985670.235  -3503660.282
10 0 59247  76182.000000  0    4569382.365  -4398836.665  -2698300.284
10 0 59247  76302.000000  0    4652767.999  -4737537.595  -1845571.058
10 0 59247  76422.000000  0    4649762.852  -4994282.504   -960413.699
10 0 59247  76542.000000  0    4561844.164  -5163025.526    -58369.215
10 0 59247  76662.000000  0    4392078.564  -5239306.755    844700.194
10 0 59247  76782.000000  0    4145043.448  -5220363.436   1732898.250
10 0 59247  76902.000000  0    3826716.284  -5105205.938   2590583.992
10 0 59247  77022.000000  0    3444336.297  -4894658.667   3402654.670
10 0 59247  77142.000000  0    3006242.117  -4591364.061   4154818.696
10 0 59247  77262.000000  0    2521689.406  -4199749.123   4833851.169
10 0 59247  77382.000000  0    2000653.542  -3725956.400   5427827.643
10 0 59247  77502.000000  0    1453621.900  -3177741.632   5926332.167
10 0 59247  77622.000000  0     891380.058  -2564339.526   6320635.816
10 0 59247  77742.000000  0     324797.532  -1896302.836   6603843.060
10 0 59247  77862.000000  0    -235382.662  -1185317.359   6771005.511
10 0 59247  77982.000000  0    -778746.523   -443995.652   6819203.947
10 0 59247  78102.000000  0   -1295401.580    314347.685   6747595.987
10 0 59247  78222.000000  0   -1776156.412   1075934.707   6557429.718
10 0 59247  78342.000000  0   -2212683.850   1826773.509   6252023.239
10 0 59247  78462.000000  0   -2597665.948   2552914.484   5836710.462
10 0 59247  78582.000000  0   -2924917.968   3240710.191   5318753.840
10 0 59247  78702.000000  0   -3189490.621   3877074.176   4707224.105
10 0 59247  78822.000000  0   -3387747.924   4449734.574   4012847.236
10 0 59247  78942.000000  0   -3517418.532   4947477.153   3247820.336
10 0 59247  79062.000000  0   -3577619.172   5360372.287   2425598.385
10 0 59247  79182.000000  0   -3568849.440   5679979.378   1560655.291
10 0 59247  79302.000000  0   -3492957.849   5899523.619    668225.177
10 0 59247  79422.000000  0   -3353080.761   6014043.531   -235971.865
10 0 59247  79542.000000  0   -3153554.232   6020502.276  -1136016.428
10 0 59247  79662.000000  0   -2899801.439   5917859.154  -2016080.750
10 0 59247  79782.000000  0   -2598196.291   5707098.406  -2860716.598
10 0 59247  79902.000000  0   -2255909.955   5391217.687  -3655129.898
10 0 59247  80022.000000  0   -1880745.508   4975178.186  -4385441.793
10 0 59247  80142.000000  0   -1480963.051   4465815.108  -5038928.317
10 0 59247  80262.000000  0   -1065101.424   3871715.462  -5604235.159
10 0 59247  80382.000000  0    -641798.839   3203064.850  -6071567.271
10 0 59247  80502.000000  0    -219616.118   2471464.921  -6432848.799
10 0 59247  80622.000000  0     193132.765   1689727.552  -6681850.279
10 0 59247  80742.000000  0     588539.476    871650.614  -6814286.055
10 0 59247  80862.000000  0     959248.906     31777.121  -6827880.482
10 0 59247  80982.000000  0    1298592.458   -814858.820  -6722402.380
10 0 59247  81102.000000  0    1600704.514  -1652994.833  -6499666.912
10 0 59247  81222.000000  0    1860621.625  -2467407.714  -6163507.772
10 0 59247  81342.000000  0    2074363.737  -3243183.733  -5719719.357
10 0 59247  81462.000000  0    2238995.644  -3965990.380  -5175968.387
10 0 59247  81582.000000  0    2352667.502  -4622342.824  -4541670.893
10 0 59247  81702.000000  0    2414633.183  -5199857.688  -3827839.508
10 0 59247  81822.000000  0    2425246.316  -5687493.375  -3046902.625
10 0 59247  81942.000000  0    2385933.879  -6075770.825  -2212494.944
99
